[{"OBJECT_NAME":"ICESAT-2","OBJECT_ID":"2018-070A","EPOCH":"2026-03-09T22:54:12.225888","MEAN_MOTION":15.28328617,"ECCENTRICITY":0.00038245,"INCLINATION":91.9993,"RA_OF_ASC_NODE":264.2397,"ARG_OF_PERICENTER":123.8941,"MEAN_ANOMALY":236.2673,"EPHEMERIS_TYPE":0,"CLASSIFICATION_TYPE":"U","NORAD_CAT_ID":43613,"ELEMENT_SET_NO":999,"REV_AT_EPOCH":41730,"BSTAR":0.00014022643,"MEAN_MOTION_DOT":3.87e-5,"MEAN_MOTION_DDOT":0},{"OBJECT_NAME":"STARLINK-30597","OBJECT_ID":"2023-160D","EPOCH":"2026-03-09T21:56:06.562176","MEAN_MOTION":15.26748428,"ECCENTRICITY":0.00010278,"INCLINATION":43.0011,"RA_OF_ASC_NODE":76.302,"ARG_OF_PERICENTER":248.1499,"MEAN_ANOMALY":111.9243,"EPHEMERIS_TYPE":0,"CLASSIFICATION_TYPE":"U","NORAD_CAT_ID":58078,"ELEMENT_SET_NO":999,"REV_AT_EPOCH":13298,"BSTAR":0.00075358598,"MEAN_MOTION_DOT":0.00020014,"MEAN_MOTION_DDOT":0}]
